USA 119                 
1 23893U 96029A   26068.41677233  .00001640  00000+0  29026-3 0  9998
2 23893  63.3196  93.1190 0846389  47.6314 319.3281 13.45886981 91843
STARLINK-35118          
1 66858U 25281L   26067.18085412  .00039094  00000+0  14204-2 0  9998
2 66858  43.0039 352.0942 0001601 279.6952  80.3719 15.27631687 15951
