[{"OBJECT_NAME":"USA 119","OBJECT_ID":"1996-029A","EPOCH":"2026-03-09T10:00:09.129312","MEAN_MOTION":13.45886981,"ECCENTRICITY":0.0846389,"INCLINATION":63.3196,"RA_OF_ASC_NODE":93.119,"ARG_OF_PERICENTER":47.6314,"MEAN_ANOMALY":319.3281,"EPHEMERIS_TYPE":0,"CLASSIFICATION_TYPE":"U","NORAD_CAT_ID":23893,"ELEMENT_SET_NO":999,"REV_AT_EPOCH":9184,"BSTAR":0.00029025737,"MEAN_MOTION_DOT":1.64e-5,"MEAN_MOTION_DDOT":0},{"OBJECT_NAME":"STARLINK-35118","OBJECT_ID":"2025-281L","EPOCH":"2026-03-08T04:20:25.795968","MEAN_MOTION":15.27631687,"ECCENTRICITY":0.00016019,"INCLINATION":43.0039,"RA_OF_ASC_NODE":352.0942,"ARG_OF_PERICENTER":279.6952,"MEAN_ANOMALY":80.3719,"EPHEMERIS_TYPE":0,"CLASSIFICATION_TYPE":"U","NORAD_CAT_ID":66858,"ELEMENT_SET_NO":999,"REV_AT_EPOCH":1595,"BSTAR":0.0014204283,"MEAN_MOTION_DOT":0.00039094,"MEAN_MOTION_DDOT":0}]
